[{"OBJECT_NAME":"FLOCK 4H-11","OBJECT_ID":"2025-276BA","EPOCH":"2026-03-09T17:03:35.203104","MEAN_MOTION":15.19866616,"ECCENTRICITY":0.00029648,"INCLINATION":97.4275,"RA_OF_ASC_NODE":144.0652,"ARG_OF_PERICENTER":29.2184,"MEAN_ANOMALY":330.9216,"EPHEMERIS_TYPE":0,"CLASSIFICATION_TYPE":"U","NORAD_CAT_ID":66714,"ELEMENT_SET_NO":999,"REV_AT_EPOCH":1532,"BSTAR":0.0004210568,"MEAN_MOTION_DOT":8.971e-5,"MEAN_MOTION_DDOT":0},{"OBJECT_NAME":"DEAR-5","OBJECT_ID":"2025-296B","EPOCH":"2026-03-09T23:49:47.465472","MEAN_MOTION":15.17623217,"ECCENTRICITY":0.00202983,"INCLINATION":41.3572,"RA_OF_ASC_NODE":323.7156,"ARG_OF_PERICENTER":262.6695,"MEAN_ANOMALY":97.1819,"EPHEMERIS_TYPE":0,"CLASSIFICATION_TYPE":"U","NORAD_CAT_ID":67070,"ELEMENT_SET_NO":999,"REV_AT_EPOCH":1320,"BSTAR":0.00032921308,"MEAN_MOTION_DOT":6.585e-5,"MEAN_MOTION_DDOT":0}]
